     2.10           G: GLONASS NAV DATA                     RINEX VERSION / TYPE
teqc  2015Jun23                         20210513 02:25:50UTCPGM / RUN BY / DATE
Linux 2.4.21-27.ELsmp|Opteron|gcc -static|Linux x86_64|=+   COMMENT
  2021     4    19    1.164153218269D-08                    CORR TO SYSTEM TIME
                                                            END OF HEADER
17 21  4 20  6 15  0.0 4.174737259746D-04 2.728484105319D-12 2.160000000000D+04
   -2.319881835938D+03-4.307746887207D-01-9.313225746155D-10 0.000000000000D+00
    1.952486621094D+04-2.192557334900D+00 0.000000000000D+00 4.000000000000D+00
    1.627532666016D+04 2.566935539246D+00-0.000000000000D+00 0.000000000000D+00
18 21  4 20  6 15  0.0 7.377658039331D-05 0.000000000000D+00 2.160000000000D+04
    6.283062500000D+03 2.050485610962D-01 0.000000000000D+00 0.000000000000D+00
    2.468046435547D+04-1.529827117920D-01-0.000000000000D+00-3.000000000000D+00
    7.025200195312D+02 3.609559059143D+00-0.000000000000D+00 0.000000000000D+00
19 21  4 20  6 15  0.0-1.405002549291D-04-9.094947017729D-13 2.175000000000D+04
    1.099240673828D+04 6.671829223633D-01 1.862645149231D-09 0.000000000000D+00
    1.771426806641D+04 1.912955284119D+00-0.000000000000D+00 3.000000000000D+00
   -1.469775390625D+04 2.804951667786D+00 0.000000000000D+00 0.000000000000D+00
13 21  4 20  6 45  0.0-5.370471626520D-05-0.000000000000D+00 2.340000000000D+04
   -1.688837304688D+04 1.405597686768D+00 0.000000000000D+00 0.000000000000D+00
    9.929110839844D+03-1.741472244263D+00-0.000000000000D+00-2.000000000000D+00
   -1.635540478516D+04-2.511466979980D+00 2.793967723846D-09 0.000000000000D+00
17 21  4 20  6 45  0.0 4.174793139100D-04 2.728484105319D-12 2.340000000000D+04
   -3.570363769531D+03-9.692831039429D-01-1.862645149231D-09 0.000000000000D+00
    1.517311865234D+04-2.594705581665D+00 0.000000000000D+00 4.000000000000D+00
    2.020819531250D+04 1.774564743042D+00-9.313225746155D-10 0.000000000000D+00
 3 21  4 20  6 45  0.0 3.453996032476D-05 0.000000000000D+00 2.340000000000D+04
   -1.322620117188D+04-2.768231391907D+00 0.000000000000D+00 0.000000000000D+00
    8.089080078125D+03-2.583494186401D-01-0.000000000000D+00 5.000000000000D+00
   -2.022377734375D+04 1.698374748230D+00 2.793967723846D-09 0.000000000000D+00
14 21  4 20  6 45  0.0 6.334017962217D-05 0.000000000000D+00 2.340000000000D+04
   -1.498378369141D+04 6.867027282715D-02-9.313225746155D-10 0.000000000000D+00
    2.062735058594D+04 1.451854705811D-01-0.000000000000D+00-7.000000000000D+00
    5.596767578125D+02-3.560549736023D+00 1.862645149231D-09 0.000000000000D+00
15 21  4 20  6 45  0.0 1.042727380991D-04-0.000000000000D+00 2.340000000000D+04
   -4.326550781250D+03-1.265673637390D+00-1.862645149231D-09 0.000000000000D+00
    1.895989160156D+04 1.874123573303D+00 0.000000000000D+00 0.000000000000D+00
    1.652289208984D+04-2.484069824219D+00-0.000000000000D+00 0.000000000000D+00
18 21  4 20  6 45  0.0 7.377844303846D-05 0.000000000000D+00 2.340000000000D+04
    6.354422363281D+03-1.626281738281D-01 0.000000000000D+00 0.000000000000D+00
    2.363693994141D+04-9.843578338623D-01-0.000000000000D+00-3.000000000000D+00
    7.088228515625D+03 3.439452171326D+00-0.000000000000D+00 0.000000000000D+00
19 21  4 20  6 45  0.0-1.405030488968D-04-9.094947017729D-13 2.340000000000D+04
    1.223655224609D+04 6.718721389771D-01 1.862645149231D-09 0.000000000000D+00
    2.042673388672D+04 1.085418701172D+00-0.000000000000D+00 3.000000000000D+00
   -9.145824707031D+03 3.323809623718D+00 0.000000000000D+00 0.000000000000D+00
 4 21  4 20  6 45  0.0 8.321180939674D-05 9.094947017729D-13 2.481000000000D+04
    5.524642089844D+03-3.022513389587D+00 1.862645149231D-09 0.000000000000D+00
    1.118742382812D+04-4.218397140503D-01-0.000000000000D+00 6.000000000000D+00
   -2.221505224609D+04-9.630460739136D-01 9.313225746155D-10 0.000000000000D+00
17 21  4 20  7 15  0.0 4.174849018455D-04 2.728484105319D-12 2.520000000000D+04
   -5.814142089844D+03-1.515687942505D+00-1.862645149231D-09 0.000000000000D+00
    1.036487695312D+04-2.696861267090D+00 9.313225746155D-10 4.000000000000D+00
    2.258120361328D+04 8.449583053589D-01-9.313225746155D-10 0.000000000000D+00
 4 21  4 20  7 15  0.0 8.321460336447D-05 9.094947017729D-13 2.520000000000D+04
   -9.298730468750D+01-3.167854309082D+00 1.862645149231D-09 0.000000000000D+00
    1.082519775391D+04 2.778816223145D-02-9.313225746155D-10 6.000000000000D+00
   -2.306448779297D+04 2.538108825684D-02 1.862645149231D-09 0.000000000000D+00
 3 21  4 20  7 15  0.0 3.453996032476D-05 0.000000000000D+00 2.520000000000D+04
   -1.778607470703D+04-2.255393981934D+00-0.000000000000D+00 0.000000000000D+00
    7.999783203125D+03 1.372079849243D-01-0.000000000000D+00 5.000000000000D+00
   -1.642258740234D+04 2.497491836548D+00 2.793967723846D-09 0.000000000000D+00
14 21  4 20  7 15  0.0 6.334111094475D-05 0.000000000000D+00 2.520000000000D+04
   -1.443372070312D+04 5.055370330811D-01-9.313225746155D-10 0.000000000000D+00
    2.020882568359D+04-6.270570755005D-01-0.000000000000D+00-7.000000000000D+00
   -5.788074707031D+03-3.446656227112D+00 1.862645149231D-09 0.000000000000D+00
15 21  4 20  7 15  0.0 1.042727380991D-04-0.000000000000D+00 2.520000000000D+04
   -6.040456542969D+03-6.483478546143D-01-1.862645149231D-09 0.000000000000D+00
    2.197684179688D+04 1.433946609497D+00 0.000000000000D+00 0.000000000000D+00
    1.147123242188D+04-3.092521667480D+00 0.000000000000D+00 0.000000000000D+00
18 21  4 20  7 15  0.0 7.377937436104D-05 9.094947017729D-13 2.520000000000D+04
    5.585654296875D+03-7.156782150269D-01-9.313225746155D-10 0.000000000000D+00
    2.124672314453D+04-1.633539199829D+00 0.000000000000D+00-3.000000000000D+00
    1.292419677734D+04 3.002793312073D+00-0.000000000000D+00 0.000000000000D+00
19 21  4 20  7 15  0.0-1.405058428645D-04-9.094947017729D-13 2.520000000000D+04
    1.325203662109D+04 4.129810333252D-01 9.313225746155D-10 0.000000000000D+00
    2.160231005859D+04 2.255125045776D-01-0.000000000000D+00 3.000000000000D+00
   -2.886632812500D+03 3.585680961609D+00-0.000000000000D+00 0.000000000000D+00
13 21  4 20  7 15  0.0-5.370564758778D-05-0.000000000000D+00 2.529000000000D+04
   -1.433843212891D+04 1.384971618652D+00 0.000000000000D+00 0.000000000000D+00
    6.193499511719D+03-2.387324333191D+00-0.000000000000D+00-2.000000000000D+00
   -2.018648779297D+04-1.717755317688D+00 2.793967723846D-09 0.000000000000D+00
 4 21  4 20  7 45  0.0 8.321646600962D-05 9.094947017729D-13 2.700000000000D+04
   -5.692096679688D+03-3.002237319946D+00 9.313225746155D-10 0.000000000000D+00
    1.128484667969D+04 4.730844497681D-01-9.313225746155D-10 6.000000000000D+00
   -2.212491064453D+04 1.011762619019D+00 2.793967723846D-09 0.000000000000D+00
14 21  4 20  7 45  0.0 6.334204226732D-05 0.000000000000D+00 2.700000000000D+04
   -1.330906591797D+04 7.018556594849D-01-0.000000000000D+00 0.000000000000D+00
    1.834235253906D+04-1.444916725159D+00-0.000000000000D+00-7.000000000000D+00
   -1.168777539062D+04-3.065947532654D+00 2.793967723846D-09 0.000000000000D+00
15 21  4 20  7 45  0.0 1.042727380991D-04-0.000000000000D+00 2.700000000000D+04
   -6.725859863281D+03-1.390190124512D-01-9.313225746155D-10 0.000000000000D+00
    2.397969384766D+04 7.577581405640D-01 0.000000000000D+00 0.000000000000D+00
    5.533399902344D+03-3.462284088135D+00 9.313225746155D-10 0.000000000000D+00
18 21  4 20  7 45  0.0 7.378123700619D-05 9.094947017729D-13 2.700000000000D+04
    3.721450195312D+03-1.362264633179D+00-9.313225746155D-10 0.000000000000D+00
    1.791221435547D+04-2.024151802063D+00 0.000000000000D+00-3.000000000000D+00
    1.775861328125D+04 2.333952903748D+00-9.313225746155D-10 0.000000000000D+00
19 21  4 20  7 45  0.0-1.405086368322D-04-9.094947017729D-13 2.700000000000D+04
    1.357795214844D+04-8.664131164551D-02 0.000000000000D+00 0.000000000000D+00
    2.129076123047D+04-5.480041503906D-01-0.000000000000D+00 3.000000000000D+00
    3.595807617188D+03 3.570243835449D+00-0.000000000000D+00 0.000000000000D+00
 3 21  4 20  7 45  0.0 3.454089164734D-05 0.000000000000D+00 2.718000000000D+04
   -2.121442187500D+04-1.524999618530D+00-9.313225746155D-10 0.000000000000D+00
    8.479209960938D+03 3.608255386353D-01-0.000000000000D+00 5.000000000000D+00
   -1.134976660156D+04 3.102194786072D+00 2.793967723846D-09 0.000000000000D+00
16 21  4 20  7 45  0.0-1.402664929628D-05-0.000000000000D+00 2.733000000000D+04
    4.896545898438D+03-8.907938003540D-01-9.313225746155D-10 0.000000000000D+00
    1.493312597656D+04 2.606761932373D+00 0.000000000000D+00-1.000000000000D+00
    2.010859423828D+04-1.704674720764D+00-9.313225746155D-10 0.000000000000D+00
 4 21  4 20  8 15  0.0 8.321925997734D-05 1.818989403546D-12 2.880000000000D+04
   -1.072876904297D+04-2.550960540771D+00 0.000000000000D+00 0.000000000000D+00
    1.246185986328D+04 8.082933425903D-01-9.313225746155D-10 6.000000000000D+00
   -1.946950732422D+04 1.919412612915D+00 2.793967723846D-09 0.000000000000D+00
 3 21  4 20  8 15  0.0 3.454275429249D-05 0.000000000000D+00 2.880000000000D+04
   -2.320391796875D+04-6.749124526978D-01-1.862645149231D-09 0.000000000000D+00
    9.159929199219D+03 3.544960021973D-01 0.000000000000D+00 5.000000000000D+00
   -5.399408691406D+03 3.466326713562D+00 2.793967723846D-09 0.000000000000D+00
14 21  4 20  8 15  0.0 6.334204226732D-05 0.000000000000D+00 2.880000000000D+04
   -1.205763232422D+04 6.486988067627D-01-0.000000000000D+00 0.000000000000D+00
    1.504858251953D+04-2.193943023682D+00-0.000000000000D+00-7.000000000000D+00
   -1.668271972656D+04-2.447916984558D+00 2.793967723846D-09 0.000000000000D+00
15 21  4 20  8 15  0.0 1.042727380991D-04-0.000000000000D+00 2.880000000000D+04
   -6.655982910156D+03 1.797752380371D-01-9.313225746155D-10 0.000000000000D+00
    2.461078710938D+04-7.416629791260D-02 0.000000000000D+00 0.000000000000D+00
   -8.320756835938D+02-3.564552307129D+00 1.862645149231D-09 0.000000000000D+00
